{
  "links" : {
    "next" : "https://api.nasa.gov/neo/rest/v1/feed?start_date=2014-01-09&end_date=2014-01-09&detailed=true&api_key=t0TVs3DtDT2H8Oy2Zy8m2eVrNsAVKAexjcZXUckd",
    "prev" : "https://api.nasa.gov/neo/rest/v1/feed?start_date=2014-01-07&end_date=2014-01-07&detailed=true&api_key=t0TVs3DtDT2H8Oy2Zy8m2eVrNsAVKAexjcZXUckd",
    "self" : "https://api.nasa.gov/neo/rest/v1/feed?start_date=2014-01-08&end_date=2014-01-08&detailed=true&api_key=t0TVs3DtDT2H8Oy2Zy8m2eVrNsAVKAexjcZXUckd"
  },
  "element_count" : 11,
  "near_earth_objects" : {
    "2014-01-08" : [ {
      "links" : {
        "self" : "https://api.nasa.gov/neo/rest/v1/neo/3655559?api_key=t0TVs3DtDT2H8Oy2Zy8m2eVrNsAVKAexjcZXUckd"
      },
      "neo_reference_id" : "3655559",
      "name" : "(2013 YL48)",
      "nasa_jpl_url" : "http://ssd.jpl.nasa.gov/sbdb.cgi?sstr=3655559",
      "absolute_magnitude_h" : 23.9,
      "estimated_diameter" : {
        "kilometers" : {
          "estimated_diameter_min" : 0.04411182,
          "estimated_diameter_max" : 0.0986370281
        },
        "meters" : {
          "estimated_diameter_min" : 44.1118199997,
          "estimated_diameter_max" : 98.6370281305
        },
        "miles" : {
          "estimated_diameter_min" : 0.0274098057,
          "estimated_diameter_max" : 0.0612901888
        },
        "feet" : {
          "estimated_diameter_min" : 144.7238235278,
          "estimated_diameter_max" : 323.6123073718
        }
      },
      "is_potentially_hazardous_asteroid" : false,
      "close_approach_data" : [ {
        "close_approach_date" : "2014-01-08",
        "epoch_date_close_approach" : 1389168000000,
        "relative_velocity" : {
          "kilometers_per_second" : "8.0950088331",
          "kilometers_per_hour" : "29142.0317993252",
          "miles_per_hour" : "18107.725258864"
        },
        "miss_distance" : {
          "astronomical" : "0.0961456423",
          "lunar" : "37.4006576538",
          "kilometers" : "14383184",
          "miles" : "8937296"
        },
        "orbiting_body" : "Earth"
      } ],
      "orbital_data" : {
        "orbit_id" : "11",
        "orbit_determination_date" : "2017-04-06 08:43:06",
        "orbit_uncertainty" : "8",
        "minimum_orbit_intersection" : ".050852",
        "jupiter_tisserand_invariant" : "5.169",
        "epoch_osculation" : "2456658.5",
        "eccentricity" : ".2528406620296879",
        "semi_major_axis" : "1.222479708507397",
        "inclination" : "13.44834439747546",
        "ascending_node_longitude" : "276.5004220032926",
        "orbital_period" : "493.6974858799198",
        "perihelion_distance" : ".9133871296905269",
        "perihelion_argument" : "249.9054465111153",
        "aphelion_distance" : "1.531572287324267",
        "perihelion_time" : "2456720.020916073693",
        "mean_anomaly" : "315.1394722072449",
        "mean_motion" : ".7291914791876446",
        "equinox" : "J2000"
      }
    }, {
      "links" : {
        "self" : "https://api.nasa.gov/neo/rest/v1/neo/3655745?api_key=t0TVs3DtDT2H8Oy2Zy8m2eVrNsAVKAexjcZXUckd"
      },
      "neo_reference_id" : "3655745",
      "name" : "(2014 AD16)",
      "nasa_jpl_url" : "http://ssd.jpl.nasa.gov/sbdb.cgi?sstr=3655745",
      "absolute_magnitude_h" : 27.4,
      "estimated_diameter" : {
        "kilometers" : {
          "estimated_diameter_min" : 0.0088014652,
          "estimated_diameter_max" : 0.0196806745
        },
        "meters" : {
          "estimated_diameter_min" : 8.801465209,
          "estimated_diameter_max" : 19.6806745089
        },
        "miles" : {
          "estimated_diameter_min" : 0.0054689752,
          "estimated_diameter_max" : 0.0122290004
        },
        "feet" : {
          "estimated_diameter_min" : 28.8761991163,
          "estimated_diameter_max" : 64.5691441559
        }
      },
      "is_potentially_hazardous_asteroid" : false,
      "close_approach_data" : [ {
        "close_approach_date" : "2014-01-08",
        "epoch_date_close_approach" : 1389168000000,
        "relative_velocity" : {
          "kilometers_per_second" : "8.3142145886",
          "kilometers_per_hour" : "29931.1725189232",
          "miles_per_hour" : "18598.0666132165"
        },
        "miss_distance" : {
          "astronomical" : "0.0038569585",
          "lunar" : "1.5003569126",
          "kilometers" : "576992.8125",
          "miles" : "358526.6875"
        },
        "orbiting_body" : "Earth"
      } ],
      "orbital_data" : {
        "orbit_id" : "7",
        "orbit_determination_date" : "2017-04-06 08:43:00",
        "orbit_uncertainty" : "4",
        "minimum_orbit_intersection" : ".00228233",
        "jupiter_tisserand_invariant" : "4.671",
        "epoch_osculation" : "2458000.5",
        "eccentricity" : ".3688876743784037",
        "semi_major_axis" : "1.404423016696122",
        "inclination" : ".3430065711459162",
        "ascending_node_longitude" : "130.6115606085672",
        "orbital_period" : "607.9184643530575",
        "perihelion_distance" : ".8863486762235877",
        "perihelion_argument" : "27.38990488299682",
        "aphelion_distance" : "1.922497357168657",
        "perihelion_time" : "2457921.207008283880",
        "mean_anomaly" : "46.95609475882777",
        "mean_motion" : ".5921846778960883",
        "equinox" : "J2000"
      }
    }, {
      "links" : {
        "self" : "https://api.nasa.gov/neo/rest/v1/neo/3748479?api_key=t0TVs3DtDT2H8Oy2Zy8m2eVrNsAVKAexjcZXUckd"
      },
      "neo_reference_id" : "3748479",
      "name" : "(2016 FP13)",
      "nasa_jpl_url" : "http://ssd.jpl.nasa.gov/sbdb.cgi?sstr=3748479",
      "absolute_magnitude_h" : 26.2,
      "estimated_diameter" : {
        "kilometers" : {
          "estimated_diameter_min" : 0.0152951935,
          "estimated_diameter_max" : 0.0342010925
        },
        "meters" : {
          "estimated_diameter_min" : 15.2951935344,
          "estimated_diameter_max" : 34.201092472
        },
        "miles" : {
          "estimated_diameter_min" : 0.0095039897,
          "estimated_diameter_max" : 0.021251567
        },
        "feet" : {
          "estimated_diameter_min" : 50.1810827555,
          "estimated_diameter_max" : 112.2083122258
        }
      },
      "is_potentially_hazardous_asteroid" : false,
      "close_approach_data" : [ {
        "close_approach_date" : "2014-01-08",
        "epoch_date_close_approach" : 1389168000000,
        "relative_velocity" : {
          "kilometers_per_second" : "19.2480858964",
          "kilometers_per_hour" : "69293.1092271473",
          "miles_per_hour" : "43056.0433417238"
        },
        "miss_distance" : {
          "astronomical" : "0.4822151242",
          "lunar" : "187.5816955566",
          "kilometers" : "72138360",
          "miles" : "44824696"
        },
        "orbiting_body" : "Earth"
      } ],
      "orbital_data" : {
        "orbit_id" : "4",
        "orbit_determination_date" : "2017-04-06 08:27:08",
        "orbit_uncertainty" : "7",
        "minimum_orbit_intersection" : ".0186425",
        "jupiter_tisserand_invariant" : "6.278",
        "epoch_osculation" : "2458000.5",
        "eccentricity" : ".1428357764474354",
        "semi_major_axis" : ".9584320491028208",
        "inclination" : "1.481179957726168",
        "ascending_node_longitude" : "357.6233403140443",
        "orbital_period" : "342.7207648952914",
        "perihelion_distance" : ".8215336631971129",
        "perihelion_argument" : "344.5043376459009",
        "aphelion_distance" : "1.095330435008529",
        "perihelion_time" : "2457959.214896643217",
        "mean_anomaly" : "43.36660841948937",
        "mean_motion" : "1.050417823705511",
        "equinox" : "J2000"
      }
    } ]
  }
}